HORYU-4                 
1 41340U 16012D   26064.44225828  .00100607  00000+0  10940-2 0  9994
2 41340  30.9912  97.7021 0002347 105.9687 254.1224 15.62025345554441
RAVAN                   
1 41849U 16067B   26064.63039532  .00045504  00000+0  93760-3 0  9990
2 41849  98.0046 302.9269 0006702  19.8966 340.2541 15.45758941511656
CELTEE 1                
1 41850U 16067C   26064.59702816  .00008141  00000+0  39794-3 0  9992
2 41850  98.0818 284.0902 0000744 130.2334 229.8963 15.18528059510155
OPTICUBE 04             
1 41851U 16067D   26064.79710167  .00004123  00000+0  26334-3 0  9995
2 41851  98.0802 271.6432 0016967 106.2599 254.0496 15.09157596509578
AEROCUBE 8D             
1 41852U 16067E   26064.58830232  .00010116  00000+0  43604-3 0  9997
2 41852  98.0833 286.9054 0004526 121.8270 238.3405 15.22783311510290
AEROCUBE 8C             
1 41853U 16067F   26064.56358573  .00011286  00000+0  48265-3 0  9996
2 41853  98.0697 284.2439 0006595  65.2178 294.9743 15.23005612510287
CORVUS BC2              
1 42846U 17042X   26064.34100590  .00006619  00000+0  46248-3 0  9996
2 42846  97.3933 229.8441 0014291 107.0086 253.2709 15.05555792471430
CORVUS BC1              
1 42847U 17042Y   26064.41460308  .00005628  00000+0  39184-3 0  9991
2 42847  97.3962 230.6575 0013210  84.9705 275.3030 15.05768630471475
MAKERSAT 0              
1 43016U 17073D   26064.64119593  .00027679  00000+0  84141-3 0  9999
2 43016  97.4785 306.6071 0115769 280.4290  78.3919 15.27572722450638
SIRION PATHFINDER-2     
1 43759U 18099B   26064.68479666  .00007812  00000+0  43979-3 0  9997
2 43759  97.4391 116.2052 0007528 302.7579  57.2926 15.13480429396966
CORVUS BC4              
1 43767U 18099K   26064.68738822  .00006674  00000+0  39677-3 0  9993
2 43767  97.4208 110.6881 0008432   9.6485 350.4906 15.11561700396768
SPACEBEE-7              
1 43816U 18099BL  26064.68147534  .02175285  51972-2  20626-2 0  9999
2 43816  97.4350 151.3793 0008666 275.9888  84.0410 16.13211931398571
M2 PATHFINDER           
1 45727U 20037E   26064.48825954  .00004144  00000+0  30294-3 0  9993
2 45727  97.8142 254.5644 0012343 139.9018 220.3121 15.04141153309909
NETSAT-4                
1 46504U 20068U   26064.56302764  .00023332  00000+0  58249-3 0  9999
2 46504  97.8636  64.7557 0005229 355.3315   4.7880 15.40170843299805
NETSAT-3                
1 46505U 20068V   26064.54986934  .00023803  00000+0  62075-3 0  9990
2 46505  97.8676  63.1063 0005680  13.5193 346.6202 15.38827758299721
NETSAT-1                
1 46506U 20068W   26064.50467412  .00018461  00000+0  60163-3 0  9992
2 46506  97.8744  58.5377 0006328  32.3778 327.7849 15.31865532299410
NETSAT-2                
1 46507U 20068X   26064.51954620  .00027749  00000+0  66611-3 0  9999
2 46507  97.8651  64.3043 0005144  33.6167 326.5403 15.41326870299741
