[{"OBJECT_NAME":"HORYU-4","OBJECT_ID":"2016-012D","EPOCH":"2026-03-05T10:36:51.115392","MEAN_MOTION":15.62025345,"ECCENTRICITY":0.0002347,"INCLINATION":30.9912,"RA_OF_ASC_NODE":97.7021,"ARG_OF_PERICENTER":105.9687,"MEAN_ANOMALY":254.1224,"EPHEMERIS_TYPE":0,"CLASSIFICATION_TYPE":"U","NORAD_CAT_ID":41340,"ELEMENT_SET_NO":999,"REV_AT_EPOCH":55444,"BSTAR":0.001094,"MEAN_MOTION_DOT":0.00100607,"MEAN_MOTION_DDOT":0},{"OBJECT_NAME":"RAVAN","OBJECT_ID":"2016-067B","EPOCH":"2026-03-05T15:07:46.155648","MEAN_MOTION":15.45758941,"ECCENTRICITY":0.0006702,"INCLINATION":98.0046,"RA_OF_ASC_NODE":302.9269,"ARG_OF_PERICENTER":19.8966,"MEAN_ANOMALY":340.2541,"EPHEMERIS_TYPE":0,"CLASSIFICATION_TYPE":"U","NORAD_CAT_ID":41849,"ELEMENT_SET_NO":999,"REV_AT_EPOCH":51165,"BSTAR":0.0009376,"MEAN_MOTION_DOT":0.00045504,"MEAN_MOTION_DDOT":0},{"OBJECT_NAME":"CELTEE 1","OBJECT_ID":"2016-067C","EPOCH":"2026-03-05T14:19:43.233024","MEAN_MOTION":15.18528059,"ECCENTRICITY":7.44e-5,"INCLINATION":98.0818,"RA_OF_ASC_NODE":284.0902,"ARG_OF_PERICENTER":130.2334,"MEAN_ANOMALY":229.8963,"EPHEMERIS_TYPE":0,"CLASSIFICATION_TYPE":"U","NORAD_CAT_ID":41850,"ELEMENT_SET_NO":999,"REV_AT_EPOCH":51015,"BSTAR":0.00039794,"MEAN_MOTION_DOT":8.141e-5,"MEAN_MOTION_DDOT":0},{"OBJECT_NAME":"OPTICUBE 04","OBJECT_ID":"2016-067D","EPOCH":"2026-03-05T19:07:49.584288","MEAN_MOTION":15.09157596,"ECCENTRICITY":0.0016967,"INCLINATION":98.0802,"RA_OF_ASC_NODE":271.6432,"ARG_OF_PERICENTER":106.2599,"MEAN_ANOMALY":254.0496,"EPHEMERIS_TYPE":0,"CLASSIFICATION_TYPE":"U","NORAD_CAT_ID":41851,"ELEMENT_SET_NO":999,"REV_AT_EPOCH":50957,"BSTAR":0.00026334,"MEAN_MOTION_DOT":4.123e-5,"MEAN_MOTION_DDOT":0},{"OBJECT_NAME":"AEROCUBE 8D","OBJECT_ID":"2016-067E","EPOCH":"2026-03-05T14:07:09.320448","MEAN_MOTION":15.22783311,"ECCENTRICITY":0.0004526,"INCLINATION":98.0833,"RA_OF_ASC_NODE":286.9054,"ARG_OF_PERICENTER":121.827,"MEAN_ANOMALY":238.3405,"EPHEMERIS_TYPE":0,"CLASSIFICATION_TYPE":"U","NORAD_CAT_ID":41852,"ELEMENT_SET_NO":999,"REV_AT_EPOCH":51029,"BSTAR":0.00043604,"MEAN_MOTION_DOT":0.00010116,"MEAN_MOTION_DDOT":0},{"OBJECT_NAME":"AEROCUBE 8C","OBJECT_ID":"2016-067F","EPOCH":"2026-03-05T13:31:33.807072","MEAN_MOTION":15.23005612,"ECCENTRICITY":0.0006595,"INCLINATION":98.0697,"RA_OF_ASC_NODE":284.2439,"ARG_OF_PERICENTER":65.2178,"MEAN_ANOMALY":294.9743,"EPHEMERIS_TYPE":0,"CLASSIFICATION_TYPE":"U","NORAD_CAT_ID":41853,"ELEMENT_SET_NO":999,"REV_AT_EPOCH":51028,"BSTAR":0.00048265,"MEAN_MOTION_DOT":0.00011286,"MEAN_MOTION_DDOT":0},{"OBJECT_NAME":"CORVUS BC2","OBJECT_ID":"2017-042X","EPOCH":"2026-03-05T08:11:02.909760","MEAN_MOTION":15.05555792,"ECCENTRICITY":0.0014291,"INCLINATION":97.3933,"RA_OF_ASC_NODE":229.8441,"ARG_OF_PERICENTER":107.0086,"MEAN_ANOMALY":253.2709,"EPHEMERIS_TYPE":0,"CLASSIFICATION_TYPE":"U","NORAD_CAT_ID":42846,"ELEMENT_SET_NO":999,"REV_AT_EPOCH":47143,"BSTAR":0.00046248,"MEAN_MOTION_DOT":6.619e-5,"MEAN_MOTION_DDOT":0},{"OBJECT_NAME":"CORVUS BC1","OBJECT_ID":"2017-042Y","EPOCH":"2026-03-05T09:57:01.706112","MEAN_MOTION":15.0576863,"ECCENTRICITY":0.001321,"INCLINATION":97.3962,"RA_OF_ASC_NODE":230.6575,"ARG_OF_PERICENTER":84.9705,"MEAN_ANOMALY":275.303,"EPHEMERIS_TYPE":0,"CLASSIFICATION_TYPE":"U","NORAD_CAT_ID":42847,"ELEMENT_SET_NO":999,"REV_AT_EPOCH":47147,"BSTAR":0.00039184,"MEAN_MOTION_DOT":5.628e-5,"MEAN_MOTION_DDOT":0},{"OBJECT_NAME":"MAKERSAT 0","OBJECT_ID":"2017-073D","EPOCH":"2026-03-05T15:23:19.328352","MEAN_MOTION":15.27572722,"ECCENTRICITY":0.0115769,"INCLINATION":97.4785,"RA_OF_ASC_NODE":306.6071,"ARG_OF_PERICENTER":280.429,"MEAN_ANOMALY":78.3919,"EPHEMERIS_TYPE":0,"CLASSIFICATION_TYPE":"U","NORAD_CAT_ID":43016,"ELEMENT_SET_NO":999,"REV_AT_EPOCH":45063,"BSTAR":0.00084141,"MEAN_MOTION_DOT":0.00027679,"MEAN_MOTION_DDOT":0},{"OBJECT_NAME":"SIRION PATHFINDER-2","OBJECT_ID":"2018-099B","EPOCH":"2026-03-05T16:26:06.431424","MEAN_MOTION":15.13480429,"ECCENTRICITY":0.0007528,"INCLINATION":97.4391,"RA_OF_ASC_NODE":116.2052,"ARG_OF_PERICENTER":302.7579,"MEAN_ANOMALY":57.2926,"EPHEMERIS_TYPE":0,"CLASSIFICATION_TYPE":"U","NORAD_CAT_ID":43759,"ELEMENT_SET_NO":999,"REV_AT_EPOCH":39696,"BSTAR":0.00043979,"MEAN_MOTION_DOT":7.812e-5,"MEAN_MOTION_DDOT":0},{"OBJECT_NAME":"CORVUS BC4","OBJECT_ID":"2018-099K","EPOCH":"2026-03-05T16:29:50.342208","MEAN_MOTION":15.115617,"ECCENTRICITY":0.0008432,"INCLINATION":97.4208,"RA_OF_ASC_NODE":110.6881,"ARG_OF_PERICENTER":9.6485,"MEAN_ANOMALY":350.4906,"EPHEMERIS_TYPE":0,"CLASSIFICATION_TYPE":"U","NORAD_CAT_ID":43767,"ELEMENT_SET_NO":999,"REV_AT_EPOCH":39676,"BSTAR":0.00039677,"MEAN_MOTION_DOT":6.674e-5,"MEAN_MOTION_DDOT":0},{"OBJECT_NAME":"SPACEBEE-7","OBJECT_ID":"2018-099BL","EPOCH":"2026-03-05T16:21:19.469376","MEAN_MOTION":16.13211931,"ECCENTRICITY":0.0008666,"INCLINATION":97.435,"RA_OF_ASC_NODE":151.3793,"ARG_OF_PERICENTER":275.9888,"MEAN_ANOMALY":84.041,"EPHEMERIS_TYPE":0,"CLASSIFICATION_TYPE":"U","NORAD_CAT_ID":43816,"ELEMENT_SET_NO":999,"REV_AT_EPOCH":39857,"BSTAR":0.0020626,"MEAN_MOTION_DOT":0.02175285,"MEAN_MOTION_DDOT":0.0051972},{"OBJECT_NAME":"M2 PATHFINDER","OBJECT_ID":"2020-037E","EPOCH":"2026-03-05T11:43:05.624256","MEAN_MOTION":15.04141153,"ECCENTRICITY":0.0012343,"INCLINATION":97.8142,"RA_OF_ASC_NODE":254.5644,"ARG_OF_PERICENTER":139.9018,"MEAN_ANOMALY":220.3121,"EPHEMERIS_TYPE":0,"CLASSIFICATION_TYPE":"U","NORAD_CAT_ID":45727,"ELEMENT_SET_NO":999,"REV_AT_EPOCH":30990,"BSTAR":0.00030294,"MEAN_MOTION_DOT":4.144e-5,"MEAN_MOTION_DDOT":0},{"OBJECT_NAME":"NETSAT-4","OBJECT_ID":"2020-068U","EPOCH":"2026-03-05T13:30:45.588096","MEAN_MOTION":15.40170843,"ECCENTRICITY":0.0005229,"INCLINATION":97.8636,"RA_OF_ASC_NODE":64.7557,"ARG_OF_PERICENTER":355.3315,"MEAN_ANOMALY":4.788,"EPHEMERIS_TYPE":0,"CLASSIFICATION_TYPE":"U","NORAD_CAT_ID":46504,"ELEMENT_SET_NO":999,"REV_AT_EPOCH":29980,"BSTAR":0.00058249,"MEAN_MOTION_DOT":0.00023332,"MEAN_MOTION_DDOT":0},{"OBJECT_NAME":"NETSAT-3","OBJECT_ID":"2020-068V","EPOCH":"2026-03-05T13:11:48.710976","MEAN_MOTION":15.38827758,"ECCENTRICITY":0.000568,"INCLINATION":97.8676,"RA_OF_ASC_NODE":63.1063,"ARG_OF_PERICENTER":13.5193,"MEAN_ANOMALY":346.6202,"EPHEMERIS_TYPE":0,"CLASSIFICATION_TYPE":"U","NORAD_CAT_ID":46505,"ELEMENT_SET_NO":999,"REV_AT_EPOCH":29972,"BSTAR":0.00062075,"MEAN_MOTION_DOT":0.00023803,"MEAN_MOTION_DDOT":0},{"OBJECT_NAME":"NETSAT-1","OBJECT_ID":"2020-068W","EPOCH":"2026-03-05T12:06:43.843968","MEAN_MOTION":15.31865532,"ECCENTRICITY":0.0006328,"INCLINATION":97.8744,"RA_OF_ASC_NODE":58.5377,"ARG_OF_PERICENTER":32.3778,"MEAN_ANOMALY":327.7849,"EPHEMERIS_TYPE":0,"CLASSIFICATION_TYPE":"U","NORAD_CAT_ID":46506,"ELEMENT_SET_NO":999,"REV_AT_EPOCH":29941,"BSTAR":0.00060163,"MEAN_MOTION_DOT":0.00018461,"MEAN_MOTION_DDOT":0},{"OBJECT_NAME":"NETSAT-2","OBJECT_ID":"2020-068X","EPOCH":"2026-03-05T12:28:08.791680","MEAN_MOTION":15.4132687,"ECCENTRICITY":0.0005144,"INCLINATION":97.8651,"RA_OF_ASC_NODE":64.3043,"ARG_OF_PERICENTER":33.6167,"MEAN_ANOMALY":326.5403,"EPHEMERIS_TYPE":0,"CLASSIFICATION_TYPE":"U","NORAD_CAT_ID":46507,"ELEMENT_SET_NO":999,"REV_AT_EPOCH":29974,"BSTAR":0.00066611,"MEAN_MOTION_DOT":0.00027749,"MEAN_MOTION_DDOT":0}]
